IRIDIUM 112             
1 41925U 17003J   24305.54298623  .00000448  00000+0  15302-3 0  9994
2 41925  86.3968 336.3969 0001999 101.9592 258.1828 14.34219331408217
IRIDIUM 111             
1 41926U 17003K   24305.39076679  .00000819  00000+0  28550-3 0  9994
2 41926  86.3970 336.5182 0002234  96.8333 263.3117 14.34214317408216
IRIDIUM 113             
1 42803U 17039A   24305.16141502 -.00001341  00000+0 -48615-3 0  9998
2 42803  86.4035 210.3662 0001764  86.6284 273.5113 14.34215756386048
IRIDIUM 123             
1 42804U 17039B   24305.83082037  .00001865  00000+0  65885-3 0  9997
2 42804  86.3976 241.5430 0002489  83.8349 276.3130 14.34215678384903
IRIDIUM 120             
1 42805U 17039C   24305.78299936  .00000270  00000+0  89286-4 0  9991
2 42805  86.4019 209.9664 0002096  77.1487 282.9943 14.34217314386123
IRIDIUM 115             
1 42806U 17039D   24305.78524385  .00001784  00000+0  52426-3 0  9997
2 42806  86.4557 210.0098 0002380  85.2865 274.8607 14.43289903388673
IRIDIUM 118             
1 42807U 17039E   24305.79275577  .00001306  00000+0  45898-3 0  9990
2 42807  86.3976 241.5596 0002036  81.4803 278.6623 14.34224386384904
IRIDIUM 117             
1 42808U 17039F   24305.53271570  .00000803  00000+0  27971-3 0  9995
2 42808  86.3974 241.6316 0002355  84.0396 276.1069 14.34220588384888
